start=new Date('2022-09-25T00:00:00.000Z').valueOf();
sats=[{"CLASSIFICATION_TYPE":"U","BSTAR":"0.00004494900000","OBJECT_TYPE":"PAYLOAD","MEAN_MOTION":"15.01270413","LAUNCH_DATE":"2022-07-22","OBJECT_NAME":"STARLINK-4384","EPOCH":"2022-09-24T17:57:07.737408","TLE_LINE1":"1 53218U 22084AF  22267.74800622  .00000519  00000-0  44949-4 0  9992","PERIOD":"95.919","ARG_OF_PERICENTER":"137.8814","MEAN_ELEMENT_THEORY":"SGP4","CENTER_NAME":"EARTH","MEAN_ANOMALY":"222.2519","PERIAPSIS":"561.992","SITE":"AFWTR","TIME_SYSTEM":"UTC","SEMIMAJOR_AXIS":"6941.115","FILE":"3582616","TLE_LINE2":"2 53218  97.6527 327.6070 0001423 137.8814 222.2519 15.01270413 10507","ECCENTRICITY":"0.00014230","MEAN_MOTION_DOT":"0.00000519","REV_AT_EPOCH":"1050","INCLINATION":"97.6527","COUNTRY_CODE":"US","OBJECT_ID":"2022-084AF","ELEMENT_SET_NO":"999","APOAPSIS":"563.967","MEAN_MOTION_DDOT":"0.0000000000000","REF_FRAME":"TEME","DECAY_DATE":null,"RA_OF_ASC_NODE":"327.6070","EPHEMERIS_TYPE":"0","RCS_SIZE":"LARGE","NORAD_CAT_ID":"53218","GP_ID":"213408112"},{"COUNTRY_CODE":"US","INCLINATION":"97.6534","APOAPSIS":"563.674","MEAN_MOTION_DDOT":"0.0000000000000","ELEMENT_SET_NO":"999","OBJECT_ID":"2022-084AG","DECAY_DATE":null,"REF_FRAME":"TEME","RA_OF_ASC_NODE":"327.5976","RCS_SIZE":"LARGE","EPHEMERIS_TYPE":"0","GP_ID":"213406967","NORAD_CAT_ID":"53219","MEAN_MOTION":"15.01267085","OBJECT_TYPE":"PAYLOAD","BSTAR":"0.00002491000000","CLASSIFICATION_TYPE":"U","TLE_LINE1":"1 53219U 22084AG  22267.73689639  .00000261  00000-0  24910-4 0  9995","EPOCH":"2022-09-24T17:41:07.848096","OBJECT_NAME":"STARLINK-4373","LAUNCH_DATE":"2022-07-22","PERIAPSIS":"562.306","PERIOD":"95.919","CENTER_NAME":"EARTH","MEAN_ANOMALY":"233.9817","MEAN_ELEMENT_THEORY":"SGP4","ARG_OF_PERICENTER":"126.1498","SITE":"AFWTR","SEMIMAJOR_AXIS":"6941.125","TIME_SYSTEM":"UTC","ECCENTRICITY":"0.00009850","FILE":"3582616","TLE_LINE2":"2 53219  97.6534 327.5976 0000985 126.1498 233.9817 15.01267085  9982","REV_AT_EPOCH":"998","MEAN_MOTION_DOT":"0.00000261"},{"MEAN_MOTION_DOT":"0.00001132","REV_AT_EPOCH":"1050","TIME_SYSTEM":"UTC","SEMIMAJOR_AXIS":"6941.120","FILE":"3582616","TLE_LINE2":"2 53220  97.6526 327.6030 0000745 141.1915 218.9363 15.01268797 10502","ECCENTRICITY":"0.00007450","PERIOD":"95.919","MEAN_ANOMALY":"218.9363","CENTER_NAME":"EARTH","ARG_OF_PERICENTER":"141.1915","MEAN_ELEMENT_THEORY":"SGP4","PERIAPSIS":"562.468","SITE":"AFWTR","CLASSIFICATION_TYPE":"U","BSTAR":"0.00009270700000","OBJECT_TYPE":"PAYLOAD","MEAN_MOTION":"15.01268797","LAUNCH_DATE":"2022-07-22","OBJECT_NAME":"STARLINK-4363","TLE_LINE1":"1 53220U 22084AH  22267.74244864  .00001132  00000-0  92707-4 0  9992","EPOCH":"2022-09-24T17:49:07.562496","EPHEMERIS_TYPE":"0","RCS_SIZE":"LARGE","NORAD_CAT_ID":"53220","GP_ID":"213407294","RA_OF_ASC_NODE":"327.6030","REF_FRAME":"TEME","DECAY_DATE":null,"INCLINATION":"97.6526","COUNTRY_CODE":"US","ELEMENT_SET_NO":"999","OBJECT_ID":"2022-084AH","MEAN_MOTION_DDOT":"0.0000000000000","APOAPSIS":"563.502"},{"RA_OF_ASC_NODE":"327.6673","GP_ID":"213407131","NORAD_CAT_ID":"53221","RCS_SIZE":"LARGE","EPHEMERIS_TYPE":"0","MEAN_MOTION_DDOT":"0.0000000000000","APOAPSIS":"563.922","ELEMENT_SET_NO":"999","OBJECT_ID":"2022-084AJ","COUNTRY_CODE":"US","INCLINATION":"97.6529","REF_FRAME":"TEME","DECAY_DATE":null,"ECCENTRICITY":"0.00013250","FILE":"3582616","TLE_LINE2":"2 53221  97.6529 327.6673 0001325 102.8249 257.3124 15.01263136  9993","SEMIMAJOR_AXIS":"6941.137","TIME_SYSTEM":"UTC","REV_AT_EPOCH":"999","MEAN_MOTION_DOT":"0.00000772","TLE_LINE1":"1 53221U 22084AJ  22267.80170249  .00000772  00000-0  64690-4 0  9994","EPOCH":"2022-09-24T19:14:27.095136","OBJECT_NAME":"STARLINK-4377","LAUNCH_DATE":"2022-07-22","MEAN_MOTION":"15.01263136","OBJECT_TYPE":"PAYLOAD","BSTAR":"0.00006469000000","CLASSIFICATION_TYPE":"U","SITE":"AFWTR","PERIAPSIS":"562.082","PERIOD":"95.919","ARG_OF_PERICENTER":"102.8249","CENTER_NAME":"EARTH","MEAN_ELEMENT_THEORY":"SGP4","MEAN_ANOMALY":"257.3124"},{"NORAD_CAT_ID":"53222","GP_ID":"213407874","RCS_SIZE":"LARGE","EPHEMERIS_TYPE":"0","RA_OF_ASC_NODE":"327.6002","REF_FRAME":"TEME","DECAY_DATE":null,"ELEMENT_SET_NO":"999","OBJECT_ID":"2022-084AK","MEAN_MOTION_DDOT":"0.0000000000000","APOAPSIS":"564.003","INCLINATION":"97.6530","COUNTRY_CODE":"US","REV_AT_EPOCH":"998","MEAN_MOTION_DOT":"0.00002054","FILE":"3582616","TLE_LINE2":"2 53222  97.6530 327.6002 0001397 133.6738 226.4602 15.01252966  9982","ECCENTRICITY":"0.00013970","SEMIMAJOR_AXIS":"6941.169","TIME_SYSTEM":"UTC","SITE":"AFWTR","MEAN_ANOMALY":"226.4602","PERIOD":"95.920","MEAN_ELEMENT_THEORY":"SGP4","CENTER_NAME":"EARTH","ARG_OF_PERICENTER":"133.6738","PERIAPSIS":"562.064","LAUNCH_DATE":"2022-07-22","EPOCH":"2022-09-24T17:46:29.816832","TLE_LINE1":"1 53222U 22084AK  22267.74062288  .00002054  00000-0  16449-3 0  9994","OBJECT_NAME":"STARLINK-4381","BSTAR":"0.00016449000000","CLASSIFICATION_TYPE":"U","MEAN_MOTION":"15.01252966","OBJECT_TYPE":"PAYLOAD"},{"NORAD_CAT_ID":"53223","GP_ID":"213407383","EPHEMERIS_TYPE":"0","RCS_SIZE":"LARGE","RA_OF_ASC_NODE":"327.5969","DECAY_DATE":null,"REF_FRAME":"TEME","OBJECT_ID":"2022-084AL","ELEMENT_SET_NO":"999","MEAN_MOTION_DDOT":"0.0000000000000","APOAPSIS":"563.854","INCLINATION":"97.6525","COUNTRY_CODE":"US","MEAN_MOTION_DOT":"0.00002259","REV_AT_EPOCH":"998","FILE":"3582616","TLE_LINE2":"2 53223  97.6525 327.5969 0001242 107.8903 252.2457 15.01266384  9988","ECCENTRICITY":"0.00012420","TIME_SYSTEM":"UTC","SEMIMAJOR_AXIS":"6941.127","SITE":"AFWTR","MEAN_ELEMENT_THEORY":"SGP4","PERIOD":"95.919","CENTER_NAME":"EARTH","ARG_OF_PERICENTER":"107.8903","MEAN_ANOMALY":"252.2457","PERIAPSIS":"562.130","LAUNCH_DATE":"2022-07-22","OBJECT_NAME":"STARLINK-4354","EPOCH":"2022-09-24T17:35:47.825088","TLE_LINE1":"1 53223U 22084AL  22267.73319242  .00002259  00000-0  18039-3 0  9993","CLASSIFICATION_TYPE":"U","BSTAR":"0.00018039000000","OBJECT_TYPE":"PAYLOAD","MEAN_MOTION":"15.01266384"},{"SEMIMAJOR_AXIS":"6941.149","TIME_SYSTEM":"UTC","TLE_LINE2":"2 53224  97.6524 327.5989 0000859 132.5582 227.5714 15.01259217  9989","FILE":"3582616","ECCENTRICITY":"0.00008590","REV_AT_EPOCH":"998","MEAN_MOTION_DOT":"0.00000134","BSTAR":"0.00001501300000","CLASSIFICATION_TYPE":"U","MEAN_MOTION":"15.01259217","OBJECT_TYPE":"PAYLOAD","LAUNCH_DATE":"2022-07-22","TLE_LINE1":"1 53224U 22084AM  22267.73875073  .00000134  00000-0  15013-4 0  9993","EPOCH":"2022-09-24T17:43:48.063072","OBJECT_NAME":"STARLINK-4356","CENTER_NAME":"EARTH","PERIOD":"95.919","MEAN_ANOMALY":"227.5714","ARG_OF_PERICENTER":"132.5582","MEAN_ELEMENT_THEORY":"SGP4","PERIAPSIS":"562.418","SITE":"AFWTR","RA_OF_ASC_NODE":"327.5989","RCS_SIZE":"LARGE","EPHEMERIS_TYPE":"0","NORAD_CAT_ID":"53224","GP_ID":"213407711","INCLINATION":"97.6524","COUNTRY_CODE":"US","OBJECT_ID":"2022-084AM","ELEMENT_SET_NO":"999","MEAN_MOTION_DDOT":"0.0000000000000","APOAPSIS":"563.611","DECAY_DATE":null,"REF_FRAME":"TEME"},{"ECCENTRICITY":"0.00015210","FILE":"3582616","TLE_LINE2":"2 53225  97.6534 327.6622 0001521  97.7562 262.3835 15.01269449  9993","SEMIMAJOR_AXIS":"6941.118","TIME_SYSTEM":"UTC","REV_AT_EPOCH":"999","MEAN_MOTION_DOT":"0.00002946","EPOCH":"2022-09-24T19:06:26.813088","TLE_LINE1":"1 53225U 22084AN  22267.79614367  .00002946  00000-0  23377-3 0  9991","OBJECT_NAME":"STARLINK-4358","LAUNCH_DATE":"2022-07-22","MEAN_MOTION":"15.01269449","OBJECT_TYPE":"PAYLOAD","BSTAR":"0.00023377000000","CLASSIFICATION_TYPE":"U","SITE":"AFWTR","PERIAPSIS":"561.927","PERIOD":"95.919","CENTER_NAME":"EARTH","MEAN_ELEMENT_THEORY":"SGP4","ARG_OF_PERICENTER":"97.7562","MEAN_ANOMALY":"262.3835","RA_OF_ASC_NODE":"327.6622","GP_ID":"213407547","NORAD_CAT_ID":"53225","RCS_SIZE":"LARGE","EPHEMERIS_TYPE":"0","MEAN_MOTION_DDOT":"0.0000000000000","APOAPSIS":"564.038","OBJECT_ID":"2022-084AN","ELEMENT_SET_NO":"999","COUNTRY_CODE":"US","INCLINATION":"97.6534","REF_FRAME":"TEME","DECAY_DATE":null},{"SITE":"AFWTR","MEAN_ANOMALY":"244.3026","PERIOD":"95.919","MEAN_ELEMENT_THEORY":"SGP4","ARG_OF_PERICENTER":"115.8335","CENTER_NAME":"EARTH","PERIAPSIS":"562.084","LAUNCH_DATE":"2022-07-22","EPOCH":"2022-09-24T17:36:09.190944","TLE_LINE1":"1 53226U 22084AP  22267.73343971  .00001107  00000-0  90719-4 0  9999","OBJECT_NAME":"STARLINK-4359","BSTAR":"0.00009071900000","CLASSIFICATION_TYPE":"U","MEAN_MOTION":"15.01264218","OBJECT_TYPE":"PAYLOAD","REV_AT_EPOCH":"998","MEAN_MOTION_DOT":"0.00001107","TLE_LINE2":"2 53226  97.6528 327.5989 0001318 115.8335 244.3026 15.01264218  9986","FILE":"3582616","ECCENTRICITY":"0.00013180","SEMIMAJOR_AXIS":"6941.134","TIME_SYSTEM":"UTC","REF_FRAME":"TEME","DECAY_DATE":null,"OBJECT_ID":"2022-084AP","ELEMENT_SET_NO":"999","APOAPSIS":"563.914","MEAN_MOTION_DDOT":"0.0000000000000","INCLINATION":"97.6528","COUNTRY_CODE":"US","NORAD_CAT_ID":"53226","GP_ID":"213408113","RCS_SIZE":"LARGE","EPHEMERIS_TYPE":"0","RA_OF_ASC_NODE":"327.5989"},{"GP_ID":"213406968","NORAD_CAT_ID":"53227","RCS_SIZE":"LARGE","EPHEMERIS_TYPE":"0","RA_OF_ASC_NODE":"327.5969","REF_FRAME":"TEME","DECAY_DATE":null,"APOAPSIS":"564.116","MEAN_MOTION_DDOT":"0.0000000000000","OBJECT_ID":"2022-084AQ","ELEMENT_SET_NO":"999","COUNTRY_CODE":"US","INCLINATION":"97.6542","REV_AT_EPOCH":"998","MEAN_MOTION_DOT":"0.00001788","ECCENTRICITY":"0.00016350","FILE":"3582616","TLE_LINE2":"2 53227  97.6542 327.5969 0001635  95.0232 265.1179 15.01269881  9989","SEMIMAJOR_AXIS":"6941.116","TIME_SYSTEM":"UTC","SITE":"AFWTR","PERIAPSIS":"561.847","PERIOD":"95.919","MEAN_ANOMALY":"265.1179","CENTER_NAME":"EARTH","MEAN_ELEMENT_THEORY":"SGP4","ARG_OF_PERICENTER":"95.0232","EPOCH":"2022-09-24T17:25:29.411904","TLE_LINE1":"1 53227U 22084AQ  22267.72603486  .00001788  00000-0  14370-3 0  9992","OBJECT_NAME":"STARLINK-4366","LAUNCH_DATE":"2022-07-22","MEAN_MOTION":"15.01269881","OBJECT_TYPE":"PAYLOAD","BSTAR":"0.00014370000000","CLASSIFICATION_TYPE":"U"}];
